GLOBALSTAR M075         
1 37192U 10054E   23293.79270209 -.00000061  00000+0  23860-3 0  9996
2 37192  51.9942 224.8319 0000823  58.9817 318.6813 12.62254704599550
GLOBALSTAR M073         
1 37193U 10054F   23293.89023932 -.00000094  00000+0  53286-4 0  9999
2 37193  52.0036 137.8912 0000938  86.4218  15.6529 12.62268915601446
GLOBALSTAR M083         
1 37739U 11033A   23293.40940147 -.00000096  00000+0  42927-4 0  9998
2 37739  51.9850  88.9094 0000640  81.9764 295.5192 12.62270536570359
GLOBALSTAR M088         
1 37740U 11033B   23293.57019685 -.00000075  00000+0  15959-3 0  9993
2 37740  51.9759 354.4257 0000471  67.7014  79.9615 12.62266449565911
GLOBALSTAR M091         
1 37741U 11033C   23294.02999529 -.00000077  00000+0  15104-3 0  9993
2 37741  52.0004 315.4991 0000543  44.7795 332.5678 12.62267395567022
GLOBALSTAR M085         
1 37742U 11033D   23294.10943571 -.00000075  00000+0  15948-3 0  9993
2 37742  51.9860 266.8291 0000646  41.4809  37.7102 12.62263993567775
GLOBALSTAR M081         
1 37743U 11033E   23293.88340334 -.00000082  00000+0  12267-3 0  9995
2 37743  51.9949 269.9310 0000801  51.5087 319.9619 12.62265694567782
GLOBALSTAR M089         
1 37744U 11033F   23294.10236866 -.00000078  00000+0  14263-3 0  9999
2 37744  51.9925 223.6058 0000840  82.7297  24.0234 12.62268466568525
