<?xml version="1.0" encoding="UTF-8"?>
<ndm xmlns:xsi="http://www.w3.org/2001/XMLSchema-instance" xsi:noNamespaceSchemaLocation="https://sanaregistry.org/r/ndmxml_unqualified/ndmxml-2.0.0-master-2.0.xsd">
<omm id="CCSDS_OMM_VERS" version="2.0">
<header><CREATION_DATE/><ORIGINATOR/></header><body><segment><metadata><OBJECT_NAME>GLOBALSTAR M075 [+]</OBJECT_NAME><OBJECT_ID>2010-054E</OBJECT_ID><CENTER_NAME>EARTH</CENTER_NAME><REF_FRAME>TEME</REF_FRAME><TIME_SYSTEM>UTC</TIME_SYSTEM><MEAN_ELEMENT_THEORY>SGP4</MEAN_ELEMENT_THEORY></metadata><data><meanElements><EPOCH>2023-10-20T19:01:29.460576</EPOCH><MEAN_MOTION>12.62254704</MEAN_MOTION><ECCENTRICITY>.0000823</ECCENTRICITY><INCLINATION>51.9942</INCLINATION><RA_OF_ASC_NODE>224.8319</RA_OF_ASC_NODE><ARG_OF_PERICENTER>58.9817</ARG_OF_PERICENTER><MEAN_ANOMALY>318.6813</MEAN_ANOMALY></meanElements><tleParameters><EPHEMERIS_TYPE>0</EPHEMERIS_TYPE><CLASSIFICATION_TYPE>U</CLASSIFICATION_TYPE><NORAD_CAT_ID>37192</NORAD_CAT_ID><ELEMENT_SET_NO>999</ELEMENT_SET_NO><REV_AT_EPOCH>59955</REV_AT_EPOCH><BSTAR>.2386E-3</BSTAR><MEAN_MOTION_DOT>-.61E-6</MEAN_MOTION_DOT><MEAN_MOTION_DDOT>0</MEAN_MOTION_DDOT></tleParameters></data></segment></body></omm>
<omm id="CCSDS_OMM_VERS" version="2.0">
<header><CREATION_DATE/><ORIGINATOR/></header><body><segment><metadata><OBJECT_NAME>GLOBALSTAR M073 [+]</OBJECT_NAME><OBJECT_ID>2010-054F</OBJECT_ID><CENTER_NAME>EARTH</CENTER_NAME><REF_FRAME>TEME</REF_FRAME><TIME_SYSTEM>UTC</TIME_SYSTEM><MEAN_ELEMENT_THEORY>SGP4</MEAN_ELEMENT_THEORY></metadata><data><meanElements><EPOCH>2023-10-20T21:21:56.677248</EPOCH><MEAN_MOTION>12.62268915</MEAN_MOTION><ECCENTRICITY>.0000938</ECCENTRICITY><INCLINATION>52.0036</INCLINATION><RA_OF_ASC_NODE>137.8912</RA_OF_ASC_NODE><ARG_OF_PERICENTER>86.4218</ARG_OF_PERICENTER><MEAN_ANOMALY>15.6529</MEAN_ANOMALY></meanElements><tleParameters><EPHEMERIS_TYPE>0</EPHEMERIS_TYPE><CLASSIFICATION_TYPE>U</CLASSIFICATION_TYPE><NORAD_CAT_ID>37193</NORAD_CAT_ID><ELEMENT_SET_NO>999</ELEMENT_SET_NO><REV_AT_EPOCH>60144</REV_AT_EPOCH><BSTAR>.53286E-4</BSTAR><MEAN_MOTION_DOT>-.94E-6</MEAN_MOTION_DOT><MEAN_MOTION_DDOT>0</MEAN_MOTION_DDOT></tleParameters></data></segment></body></omm>
<omm id="CCSDS_OMM_VERS" version="2.0">
<header><CREATION_DATE/><ORIGINATOR/></header><body><segment><metadata><OBJECT_NAME>GLOBALSTAR M083 [+]</OBJECT_NAME><OBJECT_ID>2011-033A</OBJECT_ID><CENTER_NAME>EARTH</CENTER_NAME><REF_FRAME>TEME</REF_FRAME><TIME_SYSTEM>UTC</TIME_SYSTEM><MEAN_ELEMENT_THEORY>SGP4</MEAN_ELEMENT_THEORY></metadata><data><meanElements><EPOCH>2023-10-20T09:49:32.287008</EPOCH><MEAN_MOTION>12.62270536</MEAN_MOTION><ECCENTRICITY>.000064</ECCENTRICITY><INCLINATION>51.9850</INCLINATION><RA_OF_ASC_NODE>88.9094</RA_OF_ASC_NODE><ARG_OF_PERICENTER>81.9764</ARG_OF_PERICENTER><MEAN_ANOMALY>295.5192</MEAN_ANOMALY></meanElements><tleParameters><EPHEMERIS_TYPE>0</EPHEMERIS_TYPE><CLASSIFICATION_TYPE>U</CLASSIFICATION_TYPE><NORAD_CAT_ID>37739</NORAD_CAT_ID><ELEMENT_SET_NO>999</ELEMENT_SET_NO><REV_AT_EPOCH>57035</REV_AT_EPOCH><BSTAR>.42927E-4</BSTAR><MEAN_MOTION_DOT>-.96E-6</MEAN_MOTION_DOT><MEAN_MOTION_DDOT>0</MEAN_MOTION_DDOT></tleParameters></data></segment></body></omm>
<omm id="CCSDS_OMM_VERS" version="2.0">
<header><CREATION_DATE/><ORIGINATOR/></header><body><segment><metadata><OBJECT_NAME>GLOBALSTAR M088 [+]</OBJECT_NAME><OBJECT_ID>2011-033B</OBJECT_ID><CENTER_NAME>EARTH</CENTER_NAME><REF_FRAME>TEME</REF_FRAME><TIME_SYSTEM>UTC</TIME_SYSTEM><MEAN_ELEMENT_THEORY>SGP4</MEAN_ELEMENT_THEORY></metadata><data><meanElements><EPOCH>2023-10-20T13:41:05.007840</EPOCH><MEAN_MOTION>12.62266449</MEAN_MOTION><ECCENTRICITY>.0000471</ECCENTRICITY><INCLINATION>51.9759</INCLINATION><RA_OF_ASC_NODE>354.4257</RA_OF_ASC_NODE><ARG_OF_PERICENTER>67.7014</ARG_OF_PERICENTER><MEAN_ANOMALY>79.9615</MEAN_ANOMALY></meanElements><tleParameters><EPHEMERIS_TYPE>0</EPHEMERIS_TYPE><CLASSIFICATION_TYPE>U</CLASSIFICATION_TYPE><NORAD_CAT_ID>37740</NORAD_CAT_ID><ELEMENT_SET_NO>999</ELEMENT_SET_NO><REV_AT_EPOCH>56591</REV_AT_EPOCH><BSTAR>.15959E-3</BSTAR><MEAN_MOTION_DOT>-.75E-6</MEAN_MOTION_DOT><MEAN_MOTION_DDOT>0</MEAN_MOTION_DDOT></tleParameters></data></segment></body></omm>
<omm id="CCSDS_OMM_VERS" version="2.0">
<header><CREATION_DATE/><ORIGINATOR/></header><body><segment><metadata><OBJECT_NAME>GLOBALSTAR M091 [+]</OBJECT_NAME><OBJECT_ID>2011-033C</OBJECT_ID><CENTER_NAME>EARTH</CENTER_NAME><REF_FRAME>TEME</REF_FRAME><TIME_SYSTEM>UTC</TIME_SYSTEM><MEAN_ELEMENT_THEORY>SGP4</MEAN_ELEMENT_THEORY></metadata><data><meanElements><EPOCH>2023-10-21T00:43:11.593056</EPOCH><MEAN_MOTION>12.62267395</MEAN_MOTION><ECCENTRICITY>.0000543</ECCENTRICITY><INCLINATION>52.0004</INCLINATION><RA_OF_ASC_NODE>315.4991</RA_OF_ASC_NODE><ARG_OF_PERICENTER>44.7795</ARG_OF_PERICENTER><MEAN_ANOMALY>332.5678</MEAN_ANOMALY></meanElements><tleParameters><EPHEMERIS_TYPE>0</EPHEMERIS_TYPE><CLASSIFICATION_TYPE>U</CLASSIFICATION_TYPE><NORAD_CAT_ID>37741</NORAD_CAT_ID><ELEMENT_SET_NO>999</ELEMENT_SET_NO><REV_AT_EPOCH>56702</REV_AT_EPOCH><BSTAR>.15104E-3</BSTAR><MEAN_MOTION_DOT>-.77E-6</MEAN_MOTION_DOT><MEAN_MOTION_DDOT>0</MEAN_MOTION_DDOT></tleParameters></data></segment></body></omm>
<omm id="CCSDS_OMM_VERS" version="2.0">
<header><CREATION_DATE/><ORIGINATOR/></header><body><segment><metadata><OBJECT_NAME>GLOBALSTAR M085 [+]</OBJECT_NAME><OBJECT_ID>2011-033D</OBJECT_ID><CENTER_NAME>EARTH</CENTER_NAME><REF_FRAME>TEME</REF_FRAME><TIME_SYSTEM>UTC</TIME_SYSTEM><MEAN_ELEMENT_THEORY>SGP4</MEAN_ELEMENT_THEORY></metadata><data><meanElements><EPOCH>2023-10-21T02:37:35.245344</EPOCH><MEAN_MOTION>12.62263993</MEAN_MOTION><ECCENTRICITY>.0000646</ECCENTRICITY><INCLINATION>51.9860</INCLINATION><RA_OF_ASC_NODE>266.8291</RA_OF_ASC_NODE><ARG_OF_PERICENTER>41.4809</ARG_OF_PERICENTER><MEAN_ANOMALY>37.7102</MEAN_ANOMALY></meanElements><tleParameters><EPHEMERIS_TYPE>0</EPHEMERIS_TYPE><CLASSIFICATION_TYPE>U</CLASSIFICATION_TYPE><NORAD_CAT_ID>37742</NORAD_CAT_ID><ELEMENT_SET_NO>999</ELEMENT_SET_NO><REV_AT_EPOCH>56777</REV_AT_EPOCH><BSTAR>.15948E-3</BSTAR><MEAN_MOTION_DOT>-.75E-6</MEAN_MOTION_DOT><MEAN_MOTION_DDOT>0</MEAN_MOTION_DDOT></tleParameters></data></segment></body></omm>
<omm id="CCSDS_OMM_VERS" version="2.0">
<header><CREATION_DATE/><ORIGINATOR/></header><body><segment><metadata><OBJECT_NAME>GLOBALSTAR M081 [+]</OBJECT_NAME><OBJECT_ID>2011-033E</OBJECT_ID><CENTER_NAME>EARTH</CENTER_NAME><REF_FRAME>TEME</REF_FRAME><TIME_SYSTEM>UTC</TIME_SYSTEM><MEAN_ELEMENT_THEORY>SGP4</MEAN_ELEMENT_THEORY></metadata><data><meanElements><EPOCH>2023-10-20T21:12:06.048576</EPOCH><MEAN_MOTION>12.62265694</MEAN_MOTION><ECCENTRICITY>.0000801</ECCENTRICITY><INCLINATION>51.9949</INCLINATION><RA_OF_ASC_NODE>269.9310</RA_OF_ASC_NODE><ARG_OF_PERICENTER>51.5087</ARG_OF_PERICENTER><MEAN_ANOMALY>319.9619</MEAN_ANOMALY></meanElements><tleParameters><EPHEMERIS_TYPE>0</EPHEMERIS_TYPE><CLASSIFICATION_TYPE>U</CLASSIFICATION_TYPE><NORAD_CAT_ID>37743</NORAD_CAT_ID><ELEMENT_SET_NO>999</ELEMENT_SET_NO><REV_AT_EPOCH>56778</REV_AT_EPOCH><BSTAR>.12267E-3</BSTAR><MEAN_MOTION_DOT>-.82E-6</MEAN_MOTION_DOT><MEAN_MOTION_DDOT>0</MEAN_MOTION_DDOT></tleParameters></data></segment></body></omm>
<omm id="CCSDS_OMM_VERS" version="2.0">
<header><CREATION_DATE/><ORIGINATOR/></header><body><segment><metadata><OBJECT_NAME>GLOBALSTAR M089 [+]</OBJECT_NAME><OBJECT_ID>2011-033F</OBJECT_ID><CENTER_NAME>EARTH</CENTER_NAME><REF_FRAME>TEME</REF_FRAME><TIME_SYSTEM>UTC</TIME_SYSTEM><MEAN_ELEMENT_THEORY>SGP4</MEAN_ELEMENT_THEORY></metadata><data><meanElements><EPOCH>2023-10-21T02:27:24.652224</EPOCH><MEAN_MOTION>12.62268466</MEAN_MOTION><ECCENTRICITY>.000084</ECCENTRICITY><INCLINATION>51.9925</INCLINATION><RA_OF_ASC_NODE>223.6058</RA_OF_ASC_NODE><ARG_OF_PERICENTER>82.7297</ARG_OF_PERICENTER><MEAN_ANOMALY>24.0234</MEAN_ANOMALY></meanElements><tleParameters><EPHEMERIS_TYPE>0</EPHEMERIS_TYPE><CLASSIFICATION_TYPE>U</CLASSIFICATION_TYPE><NORAD_CAT_ID>37744</NORAD_CAT_ID><ELEMENT_SET_NO>999</ELEMENT_SET_NO><REV_AT_EPOCH>56852</REV_AT_EPOCH><BSTAR>.14263E-3</BSTAR><MEAN_MOTION_DOT>-.78E-6</MEAN_MOTION_DOT><MEAN_MOTION_DDOT>0</MEAN_MOTION_DDOT></tleParameters></data></segment></body></omm>

</ndm>
